{
  "type": "FeatureCollection",
  "features": [
    {
      "type": "Feature",
      "properties": {
        "norad_id": 66989,
        "name": "CZ-4B R/B",
        "group": "last-30-days",
        "lat": -41.30061716577928,
        "lon": -136.77157257806428,
        "alt_km": 463.60680673386923,
        "timestamp": "2025-12-10T16:57:10.417575+00:00",
        "meta_object_name": "CZ-4B R/B",
        "meta_object_id": "2025-289B",
        "meta_epoch": "2025-12-10T14:28:25.391424",
        "meta_mean_motion": 15.66309569,
        "meta_eccentricity": 0.0151881,
        "meta_inclination": 97.5238,
        "meta_ra_of_asc_node": 49.786,
        "meta_arg_of_pericenter": 11.0923,
        "meta_mean_anomaly": 349.3621,
        "meta_ephemeris_type": 0,
        "meta_classification_type": "U",
        "meta_norad_cat_id": 66989,
        "meta_element_set_no": 999,
        "meta_rev_at_epoch": 23,
        "meta_bstar": 0.00027359,
        "meta_mean_motion_dot": 0.00052933,
        "meta_mean_motion_ddot": 2.9794e-06,
        "tle_line1": "1 66989U 25289B   25344.60307166  .00052933  29794-5  27359-3 0  9998",
        "tle_line2": "2 66989  97.5238  49.7860 0151881  11.0923 349.3621 15.66309569   231"
      },
      "geometry": {
        "type": "Point",
        "coordinates": [
          -136.77157257806428,
          -41.30061716577928
        ]
      }
    },
    {
      "type": "Feature",
      "properties": {
        "norad_id": 66990,
        "name": "TJS-22",
        "group": "last-30-days",
        "lat": -3.15954703668914,
        "lon": -63.363908122161845,
        "alt_km": 34994.1148663202,
        "timestamp": "2025-12-10T16:57:10.417587+00:00",
        "meta_object_name": "TJS-22",
        "meta_object_id": "2025-290A",
        "meta_epoch": "2025-12-09T10:19:42.645216",
        "meta_mean_motion": 2.281118,
        "meta_eccentricity": 0.7302159,
        "meta_inclination": 28.4275,
        "meta_ra_of_asc_node": 302.966,
        "meta_arg_of_pericenter": 179.5139,
        "meta_mean_anomaly": 182.3589,
        "meta_ephemeris_type": 0,
        "meta_classification_type": "U",
        "meta_norad_cat_id": 66990,
        "meta_element_set_no": 999,
        "meta_rev_at_epoch": 19,
        "meta_bstar": 0.00040278,
        "meta_mean_motion_dot": 4.338e-05,
        "meta_mean_motion_ddot": 7.34076e-07,
        "tle_line1": "1 66990U 25290A   25343.43035469  .00004338  73408-6  40278-3 0  9999",
        "tle_line2": "2 66990  28.4275 302.9660 7302159 179.5139 182.3589  2.28111800   197"
      },
      "geometry": {
        "type": "Point",
        "coordinates": [
          -63.363908122161845,
          -3.15954703668914
        ]
      }
    },
    {
      "type": "Feature",
      "properties": {
        "norad_id": 66991,
        "name": "CZ-3B R/B",
        "group": "last-30-days",
        "lat": 0.5041256791456229,
        "lon": -56.628598577021975,
        "alt_km": 34485.16602789175,
        "timestamp": "2025-12-10T16:57:10.417604+00:00",
        "meta_object_name": "CZ-3B R/B",
        "meta_object_id": "2025-290B",
        "meta_epoch": "2025-12-09T10:36:26.069760",
        "meta_mean_motion": 2.37490877,
        "meta_eccentricity": 0.72382113,
        "meta_inclination": 28.4418,
        "meta_ra_of_asc_node": 302.9445,
        "meta_arg_of_pericenter": 178.8623,
        "meta_mean_anomaly": 185.118,
        "meta_ephemeris_type": 0,
        "meta_classification_type": "U",
        "meta_norad_cat_id": 66991,
        "meta_element_set_no": 999,
        "meta_rev_at_epoch": 1,
        "meta_bstar": 0.00040065438,
        "meta_mean_motion_dot": 0.00010315,
        "meta_mean_motion_ddot": 6.98243e-07,
        "tle_line1": "1 66991U 25290B   25343.44196840  .00010315  69824-6  40065-3 0  9995",
        "tle_line2": "2 66991  28.4418 302.9445 7238211 178.8623 185.1180  2.37490877    18"
      },
      "geometry": {
        "type": "Point",
        "coordinates": [
          -56.628598577021975,
          0.5041256791456229
        ]
      }
    }
  ]
}